{"type": "FeatureCollection", "features": [ {"type": "Feature", "properties": {"norad_id": 44334, "name": "EUTELSAT 7C", "group": "eutelsat", "lat": -0.060408960235400044, "lon": 136.93816279468038, "alt_km": 35785.682730327644, "timestamp": "2025-12-01T03:58:49.134855+00:00", "meta": {"OBJECT_NAME": "EUTELSAT 7C", "OBJECT_ID": "2019-034B", "EPOCH": "2025-11-30T17:18:01.691424", "MEAN_MOTION": 1.00273992, "ECCENTRICITY": 0.0003165, "INCLINATION": 0.0772, "RA_OF_ASC_NODE": 184.6297, "ARG_OF_PERICENTER": 43.2023, "MEAN_ANOMALY": 108.5328, "EPHEMERIS_TYPE": 0, "CLASSIFICATION_TYPE": "U", "NORAD_CAT_ID": 44334, "ELEMENT_SET_NO": 999, "REV_AT_EPOCH": 484, "BSTAR": 0, "MEAN_MOTION_DOT": 7.1e-07, "MEAN_MOTION_DDOT": 0, "GROUP": "eutelsat"}, "tle": {"line1": "1 44334U 19034B   25334.72085291  .00000071  00000+0  00000+0 0  9992", "line2": "2 44334   0.0772 184.6297 0003165  43.2023 108.5328  1.00273992  4848"}}, "geometry": {"type": "Point", "coordinates": [136.93816279468038, -0.060408960235400044]}}, {"type": "Feature", "properties": {"norad_id": 45027, "name": "EUTELSAT KONNECT", "group": "eutelsat", "lat": 0.03863640659552928, "lon": 137.1668373443063, "alt_km": 35790.72188224218, "timestamp": "2025-12-01T03:58:49.134891+00:00", "meta": {"OBJECT_NAME": "EUTELSAT KONNECT", "OBJECT_ID": "2020-005B", "EPOCH": "2025-11-30T17:18:09.177984", "MEAN_MOTION": 1.00272388, "ECCENTRICITY": 0.0001285, "INCLINATION": 0.0644, "RA_OF_ASC_NODE": 99.8513, "ARG_OF_PERICENTER": 191.0351, "MEAN_ANOMALY": 45.711, "EPHEMERIS_TYPE": 0, "CLASSIFICATION_TYPE": "U", "NORAD_CAT_ID": 45027, "ELEMENT_SET_NO": 999, "REV_AT_EPOCH": 2233, "BSTAR": 0, "MEAN_MOTION_DOT": 7.2e-07, "MEAN_MOTION_DDOT": 0, "GROUP": "eutelsat"}, "tle": {"line1": "1 45027U 20005B   25334.72093956  .00000072  00000+0  00000+0 0  9990", "line2": "2 45027   0.0644  99.8513 0001285 191.0351  45.7110  1.00272388 22334"}}, "geometry": {"type": "Point", "coordinates": [137.1668373443063, 0.03863640659552928]}}, {"type": "Feature", "properties": {"norad_id": 49056, "name": "EUTELSAT QUANTUM", "group": "eutelsat", "lat": 0.0076279592639368465, "lon": 177.63269244315484, "alt_km": 35784.59458952755, "timestamp": "2025-12-01T03:58:49.135074+00:00", "meta": {"OBJECT_NAME": "EUTELSAT QUANTUM", "OBJECT_ID": "2021-069B", "EPOCH": "2025-11-30T19:12:24.687072", "MEAN_MOTION": 1.0027238, "ECCENTRICITY": 0.0003482, "INCLINATION": 0.0361, "RA_OF_ASC_NODE": 61.3696, "ARG_OF_PERICENTER": 201.449, "MEAN_ANOMALY": 142.921, "EPHEMERIS_TYPE": 0, "CLASSIFICATION_TYPE": "U", "NORAD_CAT_ID": 49056, "ELEMENT_SET_NO": 999, "REV_AT_EPOCH": 1593, "BSTAR": 0, "MEAN_MOTION_DOT": 1.47e-06, "MEAN_MOTION_DDOT": 0, "GROUP": "eutelsat"}, "tle": {"line1": "1 49056U 21069B   25334.80028573  .00000147  00000+0  00000+0 0  9992", "line2": "2 49056   0.0361  61.3696 0003482 201.4490 142.9210  1.00272380 15934"}}, "geometry": {"type": "Point", "coordinates": [177.63269244315484, 0.0076279592639368465]}}, {"type": "Feature", "properties": {"norad_id": 53765, "name": "EUTELSAT KONNECT VHTS", "group": "eutelsat", "lat": 0.027396934837390183, "lon": 132.62728840319716, "alt_km": 35787.599501906516, "timestamp": "2025-12-01T03:58:49.135338+00:00", "meta": {"OBJECT_NAME": "EUTELSAT KONNECT VHTS", "OBJECT_ID": "2022-110A", "EPOCH": "2025-11-30T17:16:54.299424", "MEAN_MOTION": 1.00268528, "ECCENTRICITY": 0.0002711, "INCLINATION": 0.0568, "RA_OF_ASC_NODE": 107.7055, "ARG_OF_PERICENTER": 117.9117, "MEAN_ANOMALY": 106.1586, "EPHEMERIS_TYPE": 0, "CLASSIFICATION_TYPE": "U", "NORAD_CAT_ID": 53765, "ELEMENT_SET_NO": 999, "REV_AT_EPOCH": 483, "BSTAR": 0, "MEAN_MOTION_DOT": 3.8e-07, "MEAN_MOTION_DDOT": 0, "GROUP": "eutelsat"}, "tle": {"line1": "1 53765U 22110A   25334.72007291  .00000038  00000+0  00000+0 0  9996", "line2": "2 53765   0.0568 107.7055 0002711 117.9117 106.1586  1.00268528  4834"}}, "geometry": {"type": "Point", "coordinates": [132.62728840319716, 0.027396934837390183]}}, {"type": "Feature", "properties": {"norad_id": 54048, "name": "EUTELSAT HOTBIRD 13F", "group": "eutelsat", "lat": -0.03733863002096941, "lon": 142.98081774978309, "alt_km": 35792.99635406677, "timestamp": "2025-12-01T03:58:49.135383+00:00", "meta": {"OBJECT_NAME": "EUTELSAT HOTBIRD 13F", "OBJECT_ID": "2022-134A", "EPOCH": "2025-11-30T19:02:33.132192", "MEAN_MOTION": 1.00271276, "ECCENTRICITY": 0.0001976, "INCLINATION": 0.0534, "RA_OF_ASC_NODE": 288.5588, "ARG_OF_PERICENTER": 69.2317, "MEAN_ANOMALY": 10.7745, "EPHEMERIS_TYPE": 0, "CLASSIFICATION_TYPE": "U", "NORAD_CAT_ID": 54048, "ELEMENT_SET_NO": 999, "REV_AT_EPOCH": 1138, "BSTAR": 0, "MEAN_MOTION_DOT": 1.09e-06, "MEAN_MOTION_DDOT": 0, "GROUP": "eutelsat"}, "tle": {"line1": "1 54048U 22134A   25334.79343903  .00000109  00000+0  00000+0 0  9996", "line2": "2 54048   0.0534 288.5588 0001976  69.2317  10.7745  1.00271276 11383"}}, "geometry": {"type": "Point", "coordinates": [142.98081774978309, -0.03733863002096941]}}, {"type": "Feature", "properties": {"norad_id": 54225, "name": "EUTELSAT HOTBIRD 13G", "group": "eutelsat", "lat": -0.049785083330501405, "lon": 142.94749707832176, "alt_km": 35779.60727129039, "timestamp": "2025-12-01T03:58:49.135417+00:00", "meta": {"OBJECT_NAME": "EUTELSAT HOTBIRD 13G", "OBJECT_ID": "2022-146A", "EPOCH": "2025-11-30T19:02:33.132192", "MEAN_MOTION": 1.00271322, "ECCENTRICITY": 0.000204, "INCLINATION": 0.0465, "RA_OF_ASC_NODE": 238.7534, "ARG_OF_PERICENTER": 303.9027, "MEAN_ANOMALY": 185.9034, "EPHEMERIS_TYPE": 0, "CLASSIFICATION_TYPE": "U", "NORAD_CAT_ID": 54225, "ELEMENT_SET_NO": 999, "REV_AT_EPOCH": 547, "BSTAR": 0, "MEAN_MOTION_DOT": 1.09e-06, "MEAN_MOTION_DDOT": 0, "GROUP": "eutelsat"}, "tle": {"line1": "1 54225U 22146A   25334.79343903  .00000109  00000+0  00000+0 0  9996", "line2": "2 54225   0.0465 238.7534 0002040 303.9027 185.9034  1.00271322  5471"}}, "geometry": {"type": "Point", "coordinates": [142.94749707832176, -0.049785083330501405]}}, {"type": "Feature", "properties": {"norad_id": 54259, "name": "EUTELSAT 10B", "group": "eutelsat", "lat": 0.03317966504163105, "lon": 139.98622747191382, "alt_km": 35783.05163563364, "timestamp": "2025-12-01T03:58:49.135434+00:00", "meta": {"OBJECT_NAME": "EUTELSAT 10B", "OBJECT_ID": "2022-157A", "EPOCH": "2025-11-30T17:18:54.105984", "MEAN_MOTION": 1.00268678, "ECCENTRICITY": 0.0001052, "INCLINATION": 0.0575, "RA_OF_ASC_NODE": 104.133, "ARG_OF_PERICENTER": 64.7704, "MEAN_ANOMALY": 170.7063, "EPHEMERIS_TYPE": 0, "CLASSIFICATION_TYPE": "U", "NORAD_CAT_ID": 54259, "ELEMENT_SET_NO": 999, "REV_AT_EPOCH": 1103, "BSTAR": 0, "MEAN_MOTION_DOT": 9e-07, "MEAN_MOTION_DDOT": 0, "GROUP": "eutelsat"}, "tle": {"line1": "1 54259U 22157A   25334.72145956  .00000090  00000+0  00000+0 0  9995", "line2": "2 54259   0.0575 104.1330 0001052  64.7704 170.7063  1.00268678 11039"}}, "geometry": {"type": "Point", "coordinates": [139.98622747191382, 0.03317966504163105]}}, {"type": "Feature", "properties": {"norad_id": 59346, "name": "EUTELSAT 36D", "group": "eutelsat", "lat": -0.01897168305891805, "lon": 165.84440887722886, "alt_km": 35790.33149960134, "timestamp": "2025-12-01T03:58:49.135833+00:00", "meta": {"OBJECT_NAME": "EUTELSAT 36D", "OBJECT_ID": "2024-059A", "EPOCH": "2025-11-30T19:09:02.510208", "MEAN_MOTION": 1.0026784, "ECCENTRICITY": 8.03e-05, "INCLINATION": 0.0168, "RA_OF_ASC_NODE": 320.9663, "ARG_OF_PERICENTER": 5.9848, "MEAN_ANOMALY": 66.1247, "EPHEMERIS_TYPE": 0, "CLASSIFICATION_TYPE": "U", "NORAD_CAT_ID": 59346, "ELEMENT_SET_NO": 999, "REV_AT_EPOCH": 615, "BSTAR": 0, "MEAN_MOTION_DOT": 1.77e-06, "MEAN_MOTION_DDOT": 0, "GROUP": "eutelsat"}, "tle": {"line1": "1 59346U 24059A   25334.79794572  .00000177  00000+0  00000+0 0  9997", "line2": "2 59346   0.0168 320.9663 0000803   5.9848  66.1247  1.00267840  6154"}}, "geometry": {"type": "Point", "coordinates": [165.84440887722886, -0.01897168305891805]}}]}